CRE (WAAS/PRN 138)      
1 28868U 05036A   22302.63274889 -.00000069  00000+0  00000+0 0  9996
2 28868   0.8961  92.2610 0001647  72.2150 353.9747  1.00271575 33151
IOR-W (EGNOS/PRN 126)   
1 28899U 05044A   22302.70170815  .00000015  00000+0  00000+0 0  9991
2 28899   3.6068  38.5188 0002707 183.7408 132.2919  1.00271678 62211
QZS-1 (QZSS/PRN 183)    
1 37158U 10045A   22302.86299169 -.00000084  00000+0  00000+0 0  9994
2 37158  42.4741 131.5319 0748531 270.2613  85.0577  1.00275203 44448
GSAT-8 (GAGAN/PRN 127)  
1 37605U 11022A   22302.95024328  .00000088  00000+0  00000+0 0  9993
2 37605   0.0375  94.4729 0007301 153.3903 187.5746  1.00272488 41946
LUCH 5A (SDCM/PRN 140)  
1 37951U 11074B   22302.67549457 -.00000041  00000+0  00000+0 0  9998
2 37951   5.3497  95.1349 0003208  96.7618 256.2555  1.00269192 39884
SES-5 (EGNOS/PRN 136)   
1 38652U 12036A   22302.91785253  .00000037  00000+0  00000+0 0  9993
2 38652   0.0603 291.4617 0001948 281.4211 160.7705  1.00270842 37770
GSAT-10 (GAGAN/PRN 128) 
1 38779U 12051B   22302.84563366 -.00000162  00000+0  00000+0 0  9991
2 38779   0.0346 110.5925 0003598 132.2611 182.7788  1.00271253 36813
LUCH 5B (SDCM/PRN 125)  
1 38977U 12061A   22302.06924380 -.00000127  00000+0  00000+0 0  9994
2 38977   7.5792  61.5840 0004602 115.1428 229.3024  1.00271991 36869
ASTRA 5B (EGNOS/PRN 123)
1 39617U 14011B   22302.71577203  .00000159  00000+0  00000+0 0  9997
2 39617   0.0600 309.0771 0003936 259.1496 119.0104  1.00270297 31365
LUCH 5V (SDCM/PRN 141)  
1 39727U 14023A   22302.85447774 -.00000264  00000+0  00000+0 0  9994
2 39727   1.8163  76.6889 0003135 156.2812 207.5324  1.00267604 31069
GSAT-15 (GAGAN/PRN 139) 
1 41028U 15065A   22302.84860362 -.00000254  00000+0  00000+0 0  9998
2 41028   0.0226 261.5861 0002912 276.7595 258.7345  1.00272669 25500
E 117 W B (WAAS/PRN 131)
1 41589U 16038B   22300.99791681 -.00000001  00000+0  00000+0 0  9992
2 41589   0.0149  99.5179 0000277 169.6844   9.4043  1.00272561 23354
SES-15 (WAAS/PRN 133)   
1 42709U 17026A   22302.51069948  .00000065  00000+0  00000+0 0  9998
2 42709   0.0296   6.6201 0000265 169.8414 276.0795  1.00267596 20848
QZS-2 (QZSS/PRN 184)    
1 42738U 17028A   22302.77757632 -.00000192  00000+0  00000+0 0  9996
2 42738  41.5552 262.2721 0744619 270.8428 282.6319  1.00250473 19847
QZS-3 (QZSS/PRN 189)    
1 42917U 17048A   22302.78868803 -.00000344  00000+0  00000+0 0  9990
2 42917   0.0814 133.6732 0002403  93.3832 221.9653  1.00266833 18950
QZS-4 (QZSS/PRN 185)    
1 42965U 17062A   22302.55999698 -.00000310  00000+0  00000+0 0  9994
2 42965  40.7355   0.4007 0750223 270.3950 107.3968  1.00269183 18517
GALAXY 30 (WAAS/PRN 135)
1 46114U 20056C   22302.61270400  .00000042  00000+0  00000+0 0  9992
2 46114   0.0169 260.4007 0002012 306.1907 286.9373  1.00272027  7998
